{"type": "FeatureCollection", "features": [ {"type": "Feature", "properties": {"norad_id": 17070, "name": "POLAR BEAR", "group": "nnss", "lat": -84.56447077431444, "lon": 7.792001547537763, "alt_km": 1013.2096997523286, "timestamp": "2025-12-12T22:42:12.814298+00:00", "meta": {"OBJECT_NAME": "POLAR BEAR", "OBJECT_ID": "1986-088A", "EPOCH": "2025-12-12T02:47:54.957984", "MEAN_MOTION": 13.75250552, "ECCENTRICITY": 0.00409384, "INCLINATION": 89.6174, "RA_OF_ASC_NODE": 183.7987, "ARG_OF_PERICENTER": 121.0427, "MEAN_ANOMALY": 359.6166, "EPHEMERIS_TYPE": 0, "CLASSIFICATION_TYPE": "U", "NORAD_CAT_ID": 17070, "ELEMENT_SET_NO": 999, "REV_AT_EPOCH": 95970, "BSTAR": 0.00014213835, "MEAN_MOTION_DOT": 1.49e-06, "MEAN_MOTION_DDOT": 0}, "tle": {"line1": "1 17070U 86088A   25346.11660831  .00000149  00000+0  14214-3 0  9999", "line2": "2 17070  89.6174 183.7987 0040938 121.0427 359.6166 13.75250552959707"}}, "geometry": {"type": "Point", "coordinates": [7.792001547537763, -84.56447077431444]}}, {"type": "Feature", "properties": {"norad_id": 18361, "name": "OSCAR 27", "group": "nnss", "lat": 41.84455316353268, "lon": -100.38457628057178, "alt_km": 1080.4324349060344, "timestamp": "2025-12-12T22:42:12.814308+00:00", "meta": {"OBJECT_NAME": "OSCAR 27", "OBJECT_ID": "1987-080A", "EPOCH": "2025-12-12T05:56:21.113376", "MEAN_MOTION": 13.44906562, "ECCENTRICITY": 0.01028798, "INCLINATION": 90.3742, "RA_OF_ASC_NODE": 79.254, "ARG_OF_PERICENTER": 225.2341, "MEAN_ANOMALY": 134.0404, "EPHEMERIS_TYPE": 0, "CLASSIFICATION_TYPE": "U", "NORAD_CAT_ID": 18361, "ELEMENT_SET_NO": 999, "REV_AT_EPOCH": 87550, "BSTAR": 0.0002449176, "MEAN_MOTION_DOT": 1.56e-06, "MEAN_MOTION_DDOT": 0}, "tle": {"line1": "1 18361U 87080A   25346.24746659  .00000156  00000+0  24492-3 0  9990", "line2": "2 18361  90.3742  79.2540 0102879 225.2341 134.0404 13.44906562875500"}}, "geometry": {"type": "Point", "coordinates": [-100.38457628057178, 41.84455316353268]}}, {"type": "Feature", "properties": {"norad_id": 18362, "name": "OSCAR 29", "group": "nnss", "lat": 29.98481838594601, "lon": -100.04442171899713, "alt_km": 1099.4429712197452, "timestamp": "2025-12-12T22:42:12.814318+00:00", "meta": {"OBJECT_NAME": "OSCAR 29", "OBJECT_ID": "1987-080B", "EPOCH": "2025-12-12T06:08:23.049312", "MEAN_MOTION": 13.44448315, "ECCENTRICITY": 0.0103888, "INCLINATION": 90.3752, "RA_OF_ASC_NODE": 79.7131, "ARG_OF_PERICENTER": 248.5628, "MEAN_ANOMALY": 164.1356, "EPHEMERIS_TYPE": 0, "CLASSIFICATION_TYPE": "U", "NORAD_CAT_ID": 18362, "ELEMENT_SET_NO": 999, "REV_AT_EPOCH": 87503, "BSTAR": 0.00022124372, "MEAN_MOTION_DOT": 1.4e-06, "MEAN_MOTION_DDOT": 0}, "tle": {"line1": "1 18362U 87080B   25346.25582233  .00000140  00000+0  22124-3 0  9991", "line2": "2 18362  90.3752  79.7131 0103888 248.5628 164.1356 13.44448315875035"}}, "geometry": {"type": "Point", "coordinates": [-100.04442171899713, 29.98481838594601]}}, {"type": "Feature", "properties": {"norad_id": 19070, "name": "OSCAR 23", "group": "nnss", "lat": -83.73175720469985, "lon": 19.327391838418535, "alt_km": 1177.1483746623826, "timestamp": "2025-12-12T22:42:12.814329+00:00", "meta": {"OBJECT_NAME": "OSCAR 23", "OBJECT_ID": "1988-033A", "EPOCH": "2025-12-12T03:35:59.447904", "MEAN_MOTION": 13.27787071, "ECCENTRICITY": 0.01894878, "INCLINATION": 90.3213, "RA_OF_ASC_NODE": 16.3744, "ARG_OF_PERICENTER": 181.559, "MEAN_ANOMALY": 249.9206, "EPHEMERIS_TYPE": 0, "CLASSIFICATION_TYPE": "U", "NORAD_CAT_ID": 19070, "ELEMENT_SET_NO": 999, "REV_AT_EPOCH": 82245, "BSTAR": 0.00019380236, "MEAN_MOTION_DOT": 1.05e-06, "MEAN_MOTION_DDOT": 0}, "tle": {"line1": "1 19070U 88033A   25346.14999361  .00000105  00000+0  19380-3 0  9990", "line2": "2 19070  90.3213  16.3744 0189487 181.5590 249.9206 13.27787071822454"}}, "geometry": {"type": "Point", "coordinates": [19.327391838418535, -83.73175720469985]}}, {"type": "Feature", "properties": {"norad_id": 19071, "name": "OSCAR 32", "group": "nnss", "lat": 23.137510157123295, "lon": 16.39362456316356, "alt_km": 1266.3098360053746, "timestamp": "2025-12-12T22:42:12.814339+00:00", "meta": {"OBJECT_NAME": "OSCAR 32", "OBJECT_ID": "1988-033B", "EPOCH": "2025-12-12T03:03:00.403200", "MEAN_MOTION": 13.27953837, "ECCENTRICITY": 0.01883021, "INCLINATION": 90.3217, "RA_OF_ASC_NODE": 16.5056, "ARG_OF_PERICENTER": 168.4945, "MEAN_ANOMALY": 263.5055, "EPHEMERIS_TYPE": 0, "CLASSIFICATION_TYPE": "U", "NORAD_CAT_ID": 19071, "ELEMENT_SET_NO": 999, "REV_AT_EPOCH": 82257, "BSTAR": 0.00014196861, "MEAN_MOTION_DOT": 8e-07, "MEAN_MOTION_DDOT": 0}, "tle": {"line1": "1 19071U 88033B   25346.12708800  .00000080  00000+0  14197-3 0  9998", "line2": "2 19071  90.3217  16.5056 0188302 168.4945 263.5055 13.27953837822572"}}, "geometry": {"type": "Point", "coordinates": [16.39362456316356, 23.137510157123295]}}, {"type": "Feature", "properties": {"norad_id": 19223, "name": "NOVA 2", "group": "nnss", "lat": -38.02442949291717, "lon": -101.71777066633861, "alt_km": 1201.4436774071928, "timestamp": "2025-12-12T22:42:12.814349+00:00", "meta": {"OBJECT_NAME": "NOVA 2", "OBJECT_ID": "1988-052A", "EPOCH": "2025-12-12T07:22:54.083424", "MEAN_MOTION": 13.22935808, "ECCENTRICITY": 0.00306276, "INCLINATION": 89.9872, "RA_OF_ASC_NODE": 78.273, "ARG_OF_PERICENTER": 18.0831, "MEAN_ANOMALY": 41.2587, "EPHEMERIS_TYPE": 0, "CLASSIFICATION_TYPE": "U", "NORAD_CAT_ID": 19223, "ELEMENT_SET_NO": 999, "REV_AT_EPOCH": 80942, "BSTAR": 0.00020194066, "MEAN_MOTION_DOT": 9.4e-07, "MEAN_MOTION_DDOT": 0}, "tle": {"line1": "1 19223U 88052A   25346.30757041  .00000094  00000+0  20194-3 0  9998", "line2": "2 19223  89.9872  78.2730 0030627  18.0831  41.2587 13.22935808809429"}}, "geometry": {"type": "Point", "coordinates": [-101.71777066633861, -38.02442949291717]}}, {"type": "Feature", "properties": {"norad_id": 19419, "name": "OSCAR 25", "group": "nnss", "lat": -50.254920728348, "lon": 20.286931121079043, "alt_km": 1075.5742533409657, "timestamp": "2025-12-12T22:42:12.814360+00:00", "meta": {"OBJECT_NAME": "OSCAR 25", "OBJECT_ID": "1988-074A", "EPOCH": "2025-12-12T03:36:13.830912", "MEAN_MOTION": 13.42623105, "ECCENTRICITY": 0.00944299, "INCLINATION": 90.0348, "RA_OF_ASC_NODE": 20.2423, "ARG_OF_PERICENTER": 247.5604, "MEAN_ANOMALY": 177.0027, "EPHEMERIS_TYPE": 0, "CLASSIFICATION_TYPE": "U", "NORAD_CAT_ID": 19419, "ELEMENT_SET_NO": 999, "REV_AT_EPOCH": 82632, "BSTAR": 0.0001977396, "MEAN_MOTION_DOT": 1.23e-06, "MEAN_MOTION_DDOT": 0}, "tle": {"line1": "1 19419U 88074A   25346.15016008  .00000123  00000+0  19774-3 0  9998", "line2": "2 19419  90.0348  20.2423 0094429 247.5604 177.0027 13.42623105826321"}}, "geometry": {"type": "Point", "coordinates": [20.286931121079043, -50.254920728348]}}, {"type": "Feature", "properties": {"norad_id": 19420, "name": "OSCAR 31", "group": "nnss", "lat": -11.92809146988135, "lon": -159.41259990326535, "alt_km": 1056.8923434910994, "timestamp": "2025-12-12T22:42:12.814370+00:00", "meta": {"OBJECT_NAME": "OSCAR 31", "OBJECT_ID": "1988-074B", "EPOCH": "2025-12-12T04:11:40.444224", "MEAN_MOTION": 13.42584529, "ECCENTRICITY": 0.00927101, "INCLINATION": 90.0364, "RA_OF_ASC_NODE": 20.5923, "ARG_OF_PERICENTER": 241.5752, "MEAN_ANOMALY": 185.7364, "EPHEMERIS_TYPE": 0, "CLASSIFICATION_TYPE": "U", "NORAD_CAT_ID": 19420, "ELEMENT_SET_NO": 999, "REV_AT_EPOCH": 82643, "BSTAR": 0.00019150289, "MEAN_MOTION_DOT": 1.2e-06, "MEAN_MOTION_DDOT": 0}, "tle": {"line1": "1 19420U 88074B   25346.17477366  .00000120  00000+0  19150-3 0  9995", "line2": "2 19420  90.0364  20.5923 0092710 241.5752 185.7364 13.42584529826436"}}, "geometry": {"type": "Point", "coordinates": [-159.41259990326535, -11.92809146988135]}}]}